[{"OBJECT_NAME":"STARLINK-35177","OBJECT_ID":"2025-211X","EPOCH":"2026-03-09T15:56:19.993056","MEAN_MOTION":15.05649843,"ECCENTRICITY":0.00016962,"INCLINATION":97.6037,"RA_OF_ASC_NODE":114.1278,"ARG_OF_PERICENTER":107.8979,"MEAN_ANOMALY":252.2432,"EPHEMERIS_TYPE":0,"CLASSIFICATION_TYPE":"U","NORAD_CAT_ID":65673,"ELEMENT_SET_NO":999,"REV_AT_EPOCH":2704,"BSTAR":0.00045786336,"MEAN_MOTION_DOT":6.552e-5,"MEAN_MOTION_DDOT":0},{"OBJECT_NAME":"CZ-2D DEB","OBJECT_ID":"2017-060C","EPOCH":"2026-03-09T12:36:22.356864","MEAN_MOTION":15.07716497,"ECCENTRICITY":0.0018685,"INCLINATION":98.2453,"RA_OF_ASC_NODE":267.9231,"ARG_OF_PERICENTER":71.2095,"MEAN_ANOMALY":289.1156,"EPHEMERIS_TYPE":0,"CLASSIFICATION_TYPE":"U","NORAD_CAT_ID":44610,"ELEMENT_SET_NO":999,"REV_AT_EPOCH":45422,"BSTAR":0.00057216024,"MEAN_MOTION_DOT":8.702e-5,"MEAN_MOTION_DDOT":0}]
